NORAD_CAT_ID,OBJECT_NAME,OBJECT_TYPE,EPOCH,MEAN_MOTION,ECCENTRICITY,INCLINATION,RA_OF_ASC_NODE,ARG_OF_PERICENTER,MEAN_ANOMALY,BSTAR,MEAN_MOTION_DOT,MEAN_MOTION_DDOT,TLE_LINE0,TLE_LINE1,TLE_LINE2,SEMIMAJOR_AXIS,PERIOD,APOGEE,PERIGEE,DECAYED
55425.0,STARLINK-5615,PAYLOAD,2023-12-01 11:30:44,14.98335129,0.0002375,70.0012,15.2302,259.2894,100.7998,-0.0001304,-1.649e-05,0.0,0 STARLINK-5615,1 55425U 23014AL  23335.47968243 -.00001649  00000-0 -13040-3 0  9993,2 55425  70.0012  15.2302 0002375 259.2894 100.7998 14.98335129 46416,6950.177,96.107,573.693,570.391,0.0
55425.0,STARLINK-5615,PAYLOAD,2023-12-01 13:06:52,14.98336212,0.0002369,70.0012,15.0621,258.7417,101.3476,-9.7638e-05,-1.258e-05,0.0,0 STARLINK-5615,1 55425U 23014AL  23335.54644062 -.00001258  00000-0 -97638-4 0  9993,2 55425  70.0012  15.0621 0002369 258.7417 101.3476 14.98336212 47363,6950.174,96.107,573.685,570.392,0.0
55425.0,STARLINK-5615,PAYLOAD,2023-12-02 11:32:43,14.98343962,0.0002263,70.0016,12.7055,264.8683,95.2218,0.00015861,1.801e-05,0.0,0 STARLINK-5615,1 55425U 23014AL  23336.48106200  .00001801  00000-0  15861-3 0  9993,2 55425  70.0016  12.7055 0002263 264.8683  95.2218 14.98343962 46564,6950.15,96.106,573.588,570.442,0.0
55425.0,STARLINK-5615,PAYLOAD,2023-12-02 13:08:51,14.98343671,0.0002126,70.0019,12.5379,259.437,100.655,0.00015851,1.8e-05,0.0,0 STARLINK-5615,1 55425U 23014AL  23336.54782151  .00001800  00000-0  15851-3 0  9993,2 55425  70.0019  12.5379 0002126 259.4370 100.6550 14.98343671 47518,6950.151,96.106,573.493,570.538,0.0
55425.0,STARLINK-5615,PAYLOAD,2023-12-03 03:34:06,14.98312111,0.0002649,70.0014,11.0227,261.3752,98.7107,-0.00016896,-2.107e-05,0.0,0 STARLINK-5615,1 55425U 23014AL  23337.14869078 -.00002107  00000-0 -16896-3 0  9997,2 55425  70.0014  11.0227 0002649 261.3752  98.7107 14.98312111 46660,6950.248,96.108,573.954,570.272,0.0
55425.0,STARLINK-5615,PAYLOAD,2023-12-03 09:58:40,14.98298519,0.0002353,70.0017,10.3499,248.6967,111.3941,-0.00030244,-3.697e-05,0.0,0 STARLINK-5615,1 55425U 23014AL  23337.41574597 -.00003697  00000-0 -30244-3 0  9994,2 55425  70.0017  10.3499 0002353 248.6967 111.3941 14.98298519 46702,6950.29,96.109,573.791,570.52,0.0
55425.0,STARLINK-5615,PAYLOAD,2023-12-03 13:10:56,14.98297962,0.0002346,70.0017,10.0133,247.9633,112.1277,-0.00029924,-3.658e-05,0.0,0 STARLINK-5615,1 55425U 23014AL  23337.54926843 -.00003658  00000-0 -29924-3 0  9993,2 55425  70.0017  10.0133 0002346 247.9633 112.1277 14.98297962 47666,6950.292,96.109,573.788,570.526,0.0
55425.0,STARLINK-5615,PAYLOAD,2023-12-04 03:36:08,14.98317489,0.0002324,70.0029,8.5007,245.1753,114.9165,-0.0002331,-2.872e-05,0.0,0 STARLINK-5615,1 55425U 23014AL  23338.15010076 -.00002872  00000-0 -23310-3 0  9993,2 55425  70.0029   8.5007 0002324 245.1753 114.9165 14.98317489 46819,6950.232,96.108,573.712,570.481,0.0
55425.0,STARLINK-5615,PAYLOAD,2023-12-04 11:36:49,14.98317749,0.0002385,70.0016,7.6579,255.3671,104.7224,-0.00021936,-2.708e-05,0.0,0 STARLINK-5615,1 55425U 23014AL  23338.48390328 -.00002708  00000-0 -21936-3 0  9990,2 55425  70.0016   7.6579 0002385 255.3671 104.7224 14.98317749 47800,6950.231,96.108,573.753,570.438,0.0
55425.0,STARLINK-5615,PAYLOAD,2023-12-05 03:38:09,14.98308059,0.0002482,70.0023,5.9745,251.2736,108.8154,0.00032945,3.838e-05,0.0,0 STARLINK-5615,1 55425U 23014AL  23339.15149786  .00003838  00000-0  32945-3 0  9990,2 55425  70.0023   5.9745 0002482 251.2736 108.8154 14.98308059 46966,6950.261,96.108,573.851,570.401,0.0
55425.0,STARLINK-5615,PAYLOAD,2023-12-05 11:38:49,14.98316255,0.0002472,70.0007,5.1302,260.2025,99.8855,0.00034794,4.059e-05,0.0,0 STARLINK-5615,1 55425U 23014AL  23339.48529607  .00004059  00000-0  34794-3 0  9990,2 55425  70.0007   5.1302 0002472 260.2025  99.8855 14.98316255 47953,6950.235,96.108,573.818,570.382,0.0
55425.0,STARLINK-5615,PAYLOAD,2023-12-06 03:40:05,14.98373192,0.0002237,70.0016,3.4482,243.0317,117.0614,0.00065446,7.733e-05,0.0,0 STARLINK-5615,1 55425U 23014AL  23340.15284719  .00007733  00000-0  65446-3 0  9998,2 55425  70.0016   3.4482 0002237 243.0317 117.0614 14.98373192 47112,6950.059,96.104,573.479,570.37,0.0
55425.0,STARLINK-5615,PAYLOAD,2023-12-06 11:40:50,14.98320529,0.0002489,70.0006,2.6052,263.2126,96.8749,2.804e-05,2.42e-06,0.0,0 STARLINK-5615,1 55425U 23014AL  23340.48669608  .00000242  00000-0  28040-4 0  9996,2 55425  70.0006   2.6052 0002489 263.2126  96.8749 14.98320529 47160,6950.222,96.108,573.817,570.357,0.0
55425.0,STARLINK-5615,PAYLOAD,2023-12-07 03:42:10,14.98335159,0.0002854,69.9998,0.9211,265.9441,94.1392,-8.3874e-05,-1.094e-05,0.0,0 STARLINK-5615,1 55425U 23014AL  23341.15428745 -.00001094  00000-0 -83874-4 0  9990,2 55425  69.9998   0.9211 0002854 265.9441  94.1392 14.98335159 47261,6950.177,96.107,574.026,570.058,0.0
55425.0,STARLINK-5615,PAYLOAD,2023-12-07 11:42:50,14.98328857,0.0002541,69.9998,0.0794,255.6952,104.3925,-8.637e-05,-1.123e-05,0.0,0 STARLINK-5615,1 55425U 23014AL  23341.48809001 -.00001123  00000-0 -86370-4 0  9991,2 55425  69.9998   0.0794 0002541 255.6952 104.3925 14.98328857 48257,6950.196,96.107,573.827,570.295,0.0
55425.0,STARLINK-5615,PAYLOAD,2023-12-08 03:44:09,14.98443271,0.0002366,69.9996,358.3963,245.2095,114.8818,-0.0019168,-0.00022955,0.0,0 STARLINK-5615,1 55425U 23014AL  23342.15567121 -.00022955  00000-0 -19168-2 0  9995,2 55425  69.9996 358.3963 0002366 245.2095 114.8818 14.98443271 47412,6949.843,96.1,573.352,570.063,0.0
55425.0,STARLINK-5615,PAYLOAD,2023-12-08 11:44:49,14.98424855,0.0002121,70.0002,357.5548,242.986,117.1082,-0.0016512,-0.00019787,0.0,0 STARLINK-5615,1 55425U 23014AL  23342.48945823 -.00019787  00000-0 -16512-2 0  9999,2 55425  70.0002 357.5548 0002121 242.9860 117.1082 14.98424855 47467,6949.9,96.101,573.239,570.291,0.0
55425.0,STARLINK-5615,PAYLOAD,2023-12-09 03:46:11,14.98331255,0.0002646,70.0004,355.8721,268.2268,91.8587,8.3331e-05,9.01e-06,0.0,0 STARLINK-5615,1 55425U 23014AL  23343.15707636  .00000901  00000-0  83331-4 0  9993,2 55425  70.0004 355.8721 0002646 268.2268  91.8587 14.98331255 47568,6950.189,96.107,573.893,570.215,0.0
55425.0,STARLINK-5615,PAYLOAD,2023-12-09 11:46:51,14.98333645,0.0002567,69.9998,355.0296,266.4581,93.6284,0.00010528,1.164e-05,0.0,0 STARLINK-5615,1 55425U 23014AL  23343.49087338  .00001164  00000-0  10528-3 0  9999,2 55425  69.9998 355.0296 0002567 266.4581  93.6284 14.98333645 48555,6950.182,96.107,573.831,570.263,0.0
55425.0,STARLINK-5615,PAYLOAD,2023-12-10 00:35:56,14.98330331,0.0002589,70.0003,353.6837,265.9366,94.1497,8.0187e-06,3e-08,0.0,0 STARLINK-5615,1 55425U 23014AL  23344.02495774  .00000003  00000-0  80187-5 0  9997,2 55425  70.0003 353.6837 0002589 265.9366  94.1497 14.98330331 48639,6950.192,96.107,573.856,570.257,0.0
55425.0,STARLINK-5615,PAYLOAD,2023-12-11 03:50:13,14.9833042,0.0002455,70.0005,350.823,250.8293,109.26,-5.051e-05,-6.96e-06,0.0,0 STARLINK-5615,1 55425U 23014AL  23345.15987704 -.00000696  00000-0 -50510-4 0  9997,2 55425  70.0005 350.8230 0002455 250.8293 109.2600 14.98330420 47868,6950.192,96.107,573.763,570.35,0.0
55425.0,STARLINK-5615,PAYLOAD,2023-12-11 10:14:45,14.98329413,0.0002439,70.0006,350.1495,253.3203,106.7688,-5.9296e-05,-8e-06,0.0,0 STARLINK-5615,1 55425U 23014AL  23345.42691799 -.00000800  00000-0 -59296-4 0  9990,2 55425  70.0006 350.1495 0002439 253.3203 106.7688 14.98329413 48843,6950.195,96.107,573.755,570.365,0.0
55425.0,STARLINK-5615,PAYLOAD,2023-12-12 03:52:14,14.98329906,0.0002745,69.9998,348.2969,262.656,97.4287,2.1754e-05,1.67e-06,0.0,0 STARLINK-5615,1 55425U 23014AL  23346.16127457  .00000167  00000-0  21754-4 0  9999,2 55425  69.9998 348.2969 0002745 262.6560  97.4287 14.98329906 48010,6950.193,96.107,573.966,570.15,0.0
55425.0,STARLINK-5615,PAYLOAD,2023-12-12 10:16:46,14.98329131,0.0002736,69.9998,347.6234,262.3416,97.7432,1.2454e-05,5.6e-07,0.0,0 STARLINK-5615,1 55425U 23014AL  23346.42831535  .00000056  00000-0  12454-4 0  9991,2 55425  69.9998 347.6234 0002736 262.3416  97.7432 14.98329131 48997,6950.196,96.107,573.962,570.159,0.0
55425.0,STARLINK-5615,PAYLOAD,2023-12-13 03:54:14,14.98333777,0.0002798,69.9996,345.7715,263.8153,96.2688,3.0943e-05,2.76e-06,0.0,0 STARLINK-5615,1 55425U 23014AL  23347.16267089  .00000276  00000-0  30943-4 0  9997,2 55425  69.9996 345.7715 0002798 263.8153  96.2688 14.98333777 48167,6950.181,96.107,573.991,570.102,0.0
55425.0,STARLINK-5615,PAYLOAD,2023-12-13 10:18:46,14.98332628,0.0002764,69.9997,345.0982,265.5516,94.5327,6.6108e-05,6.96e-06,0.0,0 STARLINK-5615,1 55425U 23014AL  23347.42971016  .00000696  00000-0  66108-4 0  9996,2 55425  69.9997 345.0982 0002764 265.5516  94.5327 14.98332628 49146,6950.185,96.107,573.971,570.129,0.0
55425.0,STARLINK-5615,PAYLOAD,2023-12-14 03:56:16,14.98326532,0.0002643,70.0001,343.2469,261.931,98.155,-3.1507e-05,-4.69e-06,0.0,0 STARLINK-5615,1 55425U 23014AL  23348.16407606 -.00000469  00000-0 -31507-4 0  9992,2 55425  70.0001 343.2469 0002643 261.9310  98.1550 14.98326532 48316,6950.204,96.107,573.906,570.232,0.0
55425.0,STARLINK-5615,PAYLOAD,2023-12-14 08:44:40,14.98325726,0.0002648,70.0001,342.7419,262.548,97.5378,-3.9758e-05,-5.67e-06,0.0,0 STARLINK-5615,1 55425U 23014AL  23348.36435720 -.00000567  00000-0 -39758-4 0  9997,2 55425  70.0001 342.7419 0002648 262.5480  97.5378 14.98325726 49287,6950.206,96.107,573.912,570.231,0.0
55425.0,STARLINK-5615,PAYLOAD,2023-12-15 03:58:16,14.98333453,0.0002672,70.0002,340.7227,259.8664,100.2194,-1.2926e-05,-2.47e-06,0.0,0 STARLINK-5615,1 55425U 23014AL  23349.16547084 -.00000247  00000-0 -12926-4 0  9996,2 55425  70.0002 340.7227 0002672 259.8664 100.2194 14.98333453 48466,6950.182,96.107,573.904,570.19,0.0
55425.0,STARLINK-5615,PAYLOAD,2023-12-15 08:46:40,14.98332929,0.0002611,70.0001,340.2177,254.0477,106.0394,2.1985e-05,1.69e-06,0.0,0 STARLINK-5615,1 55425U 23014AL  23349.36574962  .00000169  00000-0  21985-4 0  9999,2 55425  70.0001 340.2177 0002611 254.0477 106.0394 14.98332929 49437,6950.184,96.107,573.864,570.234,0.0
